[{"OBJECT_NAME":"STARLINK-30378","OBJECT_ID":"2023-134S","EPOCH":"2026-03-09T22:00:01.999584","MEAN_MOTION":15.26726318,"ECCENTRICITY":0.00013972,"INCLINATION":43.0009,"RA_OF_ASC_NODE":193.3203,"ARG_OF_PERICENTER":269.7862,"MEAN_ANOMALY":323.1293,"EPHEMERIS_TYPE":0,"CLASSIFICATION_TYPE":"U","NORAD_CAT_ID":57787,"ELEMENT_SET_NO":999,"REV_AT_EPOCH":578,"BSTAR":0.00035472297,"MEAN_MOTION_DOT":9.263e-5,"MEAN_MOTION_DDOT":0},{"OBJECT_NAME":"CZ-6A DEB","OBJECT_ID":"2022-151AJB","EPOCH":"2026-02-27T14:06:27.470880","MEAN_MOTION":15.13235807,"ECCENTRICITY":0.00651829,"INCLINATION":98.7617,"RA_OF_ASC_NODE":191.4844,"ARG_OF_PERICENTER":85.1472,"MEAN_ANOMALY":275.7194,"EPHEMERIS_TYPE":0,"CLASSIFICATION_TYPE":"U","NORAD_CAT_ID":58433,"ELEMENT_SET_NO":999,"REV_AT_EPOCH":15167,"BSTAR":0.0027921214,"MEAN_MOTION_DOT":0.00052525,"MEAN_MOTION_DDOT":0}]
